IDEFIX & ARIANE 42P R/B 
1 27422U 02021B   23338.44441935  .00000606  00000+0  25177-3 0  9991
2 27422  98.5091 275.2868 0013221  98.9739 261.2940 14.29882025125893
AQUA                    
1 27424U 02022A   23338.58216689  .00001965  00000+0  43199-3 0  9998
2 27424  98.3076 282.6096 0001656  53.2263  55.4143 14.58634229148151
CZ-4B R/B               
1 27432U 02024C   23338.56006101  .00000117  00000+0  84065-4 0  9999
2 27432  99.0038  14.6690 0049980 203.6984 276.6589 14.14263011112456
MIDORI II (ADEOS-II)    
1 27597U 02056A   23338.44064669  .00000670  00000+0  28731-3 0  9997
2 27597  98.6692 281.2226 0000292 119.8445 240.2765 14.28112177 92315
H-2A R/B                
1 27601U 02056E   23338.54551399  .00000569  00000+0  21782-3 0  9991
2 27601  98.2094 320.6064 0072722 104.7525   4.5793 14.32559712 95770
CZ-4B R/B               
1 28059U 03049C   23338.48967650  .00000771  00000+0  19427-3 0  9994
2 28059  98.5841 290.7169 0048368 232.6364 127.0421 14.53448211 66518
CZ-2C R/B               
1 28222U 04012C   23338.55037813  .00011352  00000+0  50487-3 0  9992
2 28222  97.8090 338.6910 0038374  13.7332 346.4936 15.21003737 77317
SL-16 R/B               
1 28353U 04021B   23338.54438611 -.00000003  00000+0  23084-4 0  9993
2 28353  71.0001 165.9127 0006685 231.7569 128.2952 14.14372478  6018
CZ-4B R/B               
1 28415U 04035C   23338.53087957  .00005764  00000+0  32294-3 0  9999
2 28415  97.4495  11.6799 0044866 342.8874  17.0842 15.12931323 54356
CZ-2C R/B               
1 28480U 04046B   23338.43217867  .00000475  00000+0  19308-3 0  9992
2 28480  98.1376 291.0782 0142303  78.4668 283.2452 14.26173476990688
ARIANE 5 R/B            
1 28499U 04049H   23338.35338143  .00002039  00000+0  24756-3 0  9998
2 28499  98.1577 107.2551 0089998 145.5780 215.1308 14.81851366 23261
CZ-2D R/B               
1 28738U 05024B   23338.54251915  .00009159  00000+0  41140-3 0  9996
2 28738  97.3605 335.7637 0011650 108.8384 251.4116 15.21317099 12875
SUZAKU (ASTRO-EII)      
1 28773U 05025A   23338.43208903  .00017936  00000+0  51230-3 0  9996
2 28773  31.3908  16.0963 0002431  88.3755 271.7176 15.34799596 16796
ALOS (DAICHI)           
1 28931U 06002A   23338.44505075  .00002126  00000+0  40688-3 0  9999
2 28931  98.0123 291.1480 0002333  72.9693 287.1766 14.64837349952316
H-2A R/B                
1 28932U 06002B   23338.21290695  .00005670  00000+0  45116-3 0  9992
2 28932  98.2243  54.1824 0079632 131.1005 229.7129 14.98341869969960
RESURS-DK 1             
1 29228U 06021A   23338.08913468  .00002736  00000+0  19464-3 0  9994
2 29228  69.9342 204.1291 0006827 297.9267  62.1204 15.05899430962783
GENESIS 1               
1 29252U 06029A   23338.54678846  .00015093  00000+0  50348-3 0  9994
2 29252  64.5184 102.4853 0003869 249.2917 110.7799 15.31264254960566
CZ-4B R/B               
1 29507U 06046C   23338.55000196  .00004123  00000+0  28535-3 0  9999
2 29507  97.6697  10.7932 0040788 221.1809 138.6338 15.05573936935262
CZ-2C R/B               
1 31114U 07010B   23338.40279821  .00000346  00000+0  17930-3 0  9995
2 31114  98.3031 121.2632 0059604 177.5248 182.6236 14.19670237862454
COSMO-SKYMED 1          
1 31598U 07023A   23338.55804595  .00001128  00000+0  14823-3 0  9990
2 31598  97.8853 159.5796 0001310  78.6399 281.4961 14.82157474892145
GENESIS 2               
1 31789U 07028A   23338.52827015  .00014827  00000+0  50170-3 0  9991
2 31789  64.4913 147.3374 0045276 238.5344 121.1356 15.29837127907425
COSMOS 2428             
1 31792U 07029A   23338.55739436  .00000482  00000+0  28618-3 0  9992
2 31792  70.9366 137.1960 0010545 312.5777  47.4453 14.12626551847413
SL-16 R/B               
1 31793U 07029B   23338.57444580  .00000232  00000+0  14555-3 0  9996
2 31793  70.9745 108.6070 0002073 256.8567 183.9447 14.14573232848536
KORONAS-FOTON           
1 33504U 09003A   23338.26580835  .00007087  00000+0  30024-3 0  9996
2 33504  82.4400  40.5074 0016246 204.3580 155.6890 15.22866732819178
CZ-2C R/B               
1 37731U 11030B   23338.50355552  .00001742  00000+0  24903-3 0  9999
2 37731  97.7383 304.9786 0057872 153.4291 320.9456 14.76740632667964
H-2A R/B                
1 38341U 12025E   23338.30012212  .00002374  00000+0  26465-3 0  9990
2 38341  98.4344 232.6303 0053300 121.6268 239.0163 14.87112264625068
CUSAT 2 & FALCON 9 R/B  
1 39271U 13055G   23338.43211147  .00033704 -28878-6  51403-3 0  9991
2 39271  80.9433 311.4537 0383296 232.1662 124.4298 15.00217462535830
SHIJIAN-16 (SJ-16)      
1 39358U 13057A   23338.56783314  .00002581  00000+0  28436-3 0  9991
2 39358  74.9739 303.9282 0019545 307.4476  52.4931 14.87844706548449
CZ-2C R/B               
1 39364U 13059B   23338.10442208  .00043019  00000+0  63963-3 0  9999
2 39364  97.0791  21.9261 0025258 188.3995 171.6841 15.54666184562474
SL-4 R/B                
1 39679U 14021B   23338.39884314  .00009315  00000+0  38108-3 0  9991
2 39679  51.6124 333.3394 0147060  27.4068 333.4566 15.15687549530030
ALOS-2                  
1 39766U 14029A   23338.58362848  .00000500  00000+0  73886-4 0  9990
2 39766  97.9233  73.0380 0001386 101.2469 258.8898 14.79459729514722
SL-27 R/B               
1 40354U 14084B   23338.42065321  .00025556  00000+0  30980-3 0  9990
2 40354  74.7310 271.6061 0024963 186.6663 173.4231 15.60124275503487
YAOGAN-29               
1 41038U 15069A   23338.58913624  .00000935  00000+0  12658-3 0  9995
2 41038  98.0619 346.8365 0002824 128.3504 231.7962 14.81382418433500
ASTRO-H (HITOMI)        
1 41337U 16012A   23338.21326814  .00003612  00000+0  26087-3 0  9991
2 41337  31.0028 259.0929 0011492 345.1203  14.9094 15.02230281427515
HXMT (HUIYAN)           
1 42758U 17034A   23338.28262885  .00007887  00000+0  43218-3 0  9991
2 42758  43.0153 279.7656 0002512 350.2314   9.8484 15.14527877357122
CZ-2C R/B               
1 43521U 18054D   23338.22796063  .00008634  00000+0  34499-3 0  9999
2 43521  35.1505 270.6377 0064133 165.9014 194.3510 15.22478553300931
SAOCOM 1A               
1 43641U 18076A   23338.56640730  .00000986  00000+0  13037-3 0  9999
2 43641  97.8850 162.6105 0001425  92.7997 267.3379 14.82159476278992
H-2A R/B                
1 43682U 18084L   23338.10485749  .00007220  00000+0  42552-3 0  9992
2 43682  98.8748  29.1294 0047416 302.4885  57.1762 15.11027317279855
SAOCOM 1B               
1 46265U 20059A   23338.59765576  .00001001  00000+0  13231-3 0  9992
2 46265  97.8854 161.7251 0001336  94.4477 265.6889 14.82152675176387
CSS (TIANHE)            
1 48274U 21035A   23338.63581839  .00016883  00000+0  18183-3 0  9997
2 48274  41.4695 197.8945 0007888 274.9210  85.0729 15.63278374148487
COSMOS 2550             
1 48865U 21056A   23338.59824612  .00009456  00000+0  29282-3 0  9990
2 48865  67.1440  20.0217 0008297 269.7984  90.2220 15.33838072136777
2022-019U               
1 51842U 22019U   23338.59693932  .00040003  00000+0  80666-3 0  9994
2 51842  97.5212  69.8999 0043741  91.2756 269.3504 15.45377791 98675
CZ-2C R/B               
1 52794U 22058K   23337.58820439  .00008627  00000+0  38831-3 0  9999
2 52794  50.1681 122.2609 0087906  59.6793 301.2821 15.18437293 83204
CZ-2C R/B               
1 53131U 22082D   23338.52931323  .00051120  00000+0  54079-3 0  9990
2 53131  97.3339 358.1591 0024095 333.6129  26.3901 15.63643343 78259
XRISM                   
1 57800U 23137A   23338.57931695  .00005196  00000+0  41386-3 0  9995
2 57800  31.0016 175.3053 0010034  69.5976 290.5736 14.98829879 13211
